{
  "type": "FeatureCollection",
  "features": [
    {
      "type": "Feature",
      "properties": {
        "norad_id": 60182,
        "name": "ALOS-4 (DAICHI-4)",
        "group": "resource",
        "lat": 31.596775556430195,
        "lon": -78.85036378365062,
        "alt_km": 628.5608802471643,
        "timestamp": "2025-12-27T14:26:30.174515+00:00",
        "meta_object_name": "ALOS-4 (DAICHI-4)",
        "meta_object_id": "2024-123A",
        "meta_epoch": "2025-12-26T19:55:12.965952",
        "meta_mean_motion": 14.79478137,
        "meta_eccentricity": 0.00014191,
        "meta_inclination": 97.9215,
        "meta_ra_of_asc_node": 95.4758,
        "meta_arg_of_pericenter": 100.4397,
        "meta_mean_anomaly": 259.6975,
        "meta_ephemeris_type": 0,
        "meta_classification_type": "U",
        "meta_norad_cat_id": 60182,
        "meta_element_set_no": 999,
        "meta_rev_at_epoch": 8039,
        "meta_bstar": 0.00030778868,
        "meta_mean_motion_dot": 2.248e-05,
        "meta_mean_motion_ddot": 0,
        "tle_line1": "1 60182U 24123A   25360.83001118  .00002248  00000+0  30779-3 0  9991",
        "tle_line2": "2 60182  97.9215  95.4758 0001419 100.4397 259.6975 14.79478137 80393"
      },
      "geometry": {
        "type": "Point",
        "coordinates": [
          -78.85036378365062,
          31.596775556430195
        ]
      }
    },
    {
      "type": "Feature",
      "properties": {
        "norad_id": 60452,
        "name": "LEGION 3",
        "group": "resource",
        "lat": 44.50573945460449,
        "lon": -29.147660567348307,
        "alt_km": 522.2670161630676,
        "timestamp": "2025-12-27T14:26:30.174526+00:00",
        "meta_object_name": "LEGION 3",
        "meta_object_id": "2024-146A",
        "meta_epoch": "2025-12-27T02:56:33.227520",
        "meta_mean_motion": 15.15909819,
        "meta_eccentricity": 0.00157761,
        "meta_inclination": 45.0004,
        "meta_ra_of_asc_node": 233.0201,
        "meta_arg_of_pericenter": 274.8666,
        "meta_mean_anomaly": 85.0412,
        "meta_ephemeris_type": 0,
        "meta_classification_type": "U",
        "meta_norad_cat_id": 60452,
        "meta_element_set_no": 999,
        "meta_rev_at_epoch": 7591,
        "meta_bstar": 0.00033039135,
        "meta_mean_motion_dot": 6.195e-05,
        "meta_mean_motion_ddot": 0,
        "tle_line1": "1 60452U 24146A   25361.12260680  .00006195  00000+0  33039-3 0  9997",
        "tle_line2": "2 60452  45.0004 233.0201 0015776 274.8666  85.0412 15.15909819 75918"
      },
      "geometry": {
        "type": "Point",
        "coordinates": [
          -29.147660567348307,
          44.50573945460449
        ]
      }
    },
    {
      "type": "Feature",
      "properties": {
        "norad_id": 60453,
        "name": "LEGION 4",
        "group": "resource",
        "lat": 44.51664819448968,
        "lon": 62.95264931347932,
        "alt_km": 508.69459100721997,
        "timestamp": "2025-12-27T14:26:30.174537+00:00",
        "meta_object_name": "LEGION 4",
        "meta_object_id": "2024-146B",
        "meta_epoch": "2025-12-27T04:31:30.027072",
        "meta_mean_motion": 15.15986372,
        "meta_eccentricity": 0.00078109,
        "meta_inclination": 45.0397,
        "meta_ra_of_asc_node": 324.4607,
        "meta_arg_of_pericenter": 32.4876,
        "meta_mean_anomaly": 327.6483,
        "meta_ephemeris_type": 0,
        "meta_classification_type": "U",
        "meta_norad_cat_id": 60453,
        "meta_element_set_no": 999,
        "meta_rev_at_epoch": 7477,
        "meta_bstar": 0.0003702879,
        "meta_mean_motion_dot": 6.976e-05,
        "meta_mean_motion_ddot": 0,
        "tle_line1": "1 60453U 24146B   25361.18854198  .00006976  00000+0  37029-3 0  9997",
        "tle_line2": "2 60453  45.0397 324.4607 0007810  32.4876 327.6483 15.15986372 74775"
      },
      "geometry": {
        "type": "Point",
        "coordinates": [
          62.95264931347932,
          44.51664819448968
        ]
      }
    },
    {
      "type": "Feature",
      "properties": {
        "norad_id": 60989,
        "name": "SENTINEL-2C",
        "group": "resource",
        "lat": -13.124730267913838,
        "lon": -108.14527968266964,
        "alt_km": 793.5091976570975,
        "timestamp": "2025-12-27T14:26:30.174548+00:00",
        "meta_object_name": "SENTINEL-2C",
        "meta_object_id": "2024-157A",
        "meta_epoch": "2025-12-27T05:09:01.093536",
        "meta_mean_motion": 14.30818365,
        "meta_eccentricity": 0.00013664,
        "meta_inclination": 98.5665,
        "meta_ra_of_asc_node": 73.4874,
        "meta_arg_of_pericenter": 102.0401,
        "meta_mean_anomaly": 258.0935,
        "meta_ephemeris_type": 0,
        "meta_classification_type": "U",
        "meta_norad_cat_id": 60989,
        "meta_element_set_no": 999,
        "meta_rev_at_epoch": 6839,
        "meta_bstar": 8.3483303e-05,
        "meta_mean_motion_dot": 1.75e-06,
        "meta_mean_motion_ddot": 0,
        "tle_line1": "1 60989U 24157A   25361.21459599  .00000175  00000+0  83483-4 0  9994",
        "tle_line2": "2 60989  98.5665  73.4874 0001366 102.0401 258.0935 14.30818365 68397"
      },
      "geometry": {
        "type": "Point",
        "coordinates": [
          -108.14527968266964,
          -13.124730267913838
        ]
      }
    },
    {
      "type": "Feature",
      "properties": {
        "norad_id": 61735,
        "name": "IONOSFERA-M 1",
        "group": "resource",
        "lat": 26.35052659894865,
        "lon": -133.03486612743967,
        "alt_km": 815.0206737689678,
        "timestamp": "2025-12-27T14:26:30.174558+00:00",
        "meta_object_name": "IONOSFERA-M 1",
        "meta_object_id": "2024-199A",
        "meta_epoch": "2025-12-27T07:33:54.823104",
        "meta_mean_motion": 14.22717287,
        "meta_eccentricity": 2.372e-05,
        "meta_inclination": 98.7395,
        "meta_ra_of_asc_node": 231.0508,
        "meta_arg_of_pericenter": 0.37,
        "meta_mean_anomaly": 359.7478,
        "meta_ephemeris_type": 0,
        "meta_classification_type": "U",
        "meta_norad_cat_id": 61735,
        "meta_element_set_no": 999,
        "meta_rev_at_epoch": 10326,
        "meta_bstar": 4.9162393e-05,
        "meta_mean_motion_dot": 6.6e-07,
        "meta_mean_motion_ddot": 0,
        "tle_line1": "1 61735U 24199A   25361.31521786  .00000066  00000+0  49162-4 0  9994",
        "tle_line2": "2 61735  98.7395 231.0508 0000237   0.3700 359.7478 14.22717287103262"
      },
      "geometry": {
        "type": "Point",
        "coordinates": [
          -133.03486612743967,
          26.35052659894865
        ]
      }
    },
    {
      "type": "Feature",
      "properties": {
        "norad_id": 61736,
        "name": "IONOSFERA-M 2",
        "group": "resource",
        "lat": -29.310634343155698,
        "lon": 46.2930804080259,
        "alt_km": 822.6667109686186,
        "timestamp": "2025-12-27T14:26:30.174568+00:00",
        "meta_object_name": "IONOSFERA-M 2",
        "meta_object_id": "2024-199B",
        "meta_epoch": "2025-12-27T06:42:30.159936",
        "meta_mean_motion": 14.22719464,
        "meta_eccentricity": 0.00018789,
        "meta_inclination": 98.7394,
        "meta_ra_of_asc_node": 230.9277,
        "meta_arg_of_pericenter": 91.8345,
        "meta_mean_anomaly": 268.3048,
        "meta_ephemeris_type": 0,
        "meta_classification_type": "U",
        "meta_norad_cat_id": 61736,
        "meta_element_set_no": 999,
        "meta_rev_at_epoch": 10638,
        "meta_bstar": 5.1294584e-05,
        "meta_mean_motion_dot": 7.1e-07,
        "meta_mean_motion_ddot": 0,
        "tle_line1": "1 61736U 24199B   25361.27951574  .00000071  00000+0  51295-4 0  9998",
        "tle_line2": "2 61736  98.7394 230.9277 0001878  91.8345 268.3048 14.22719464106388"
      },
      "geometry": {
        "type": "Point",
        "coordinates": [
          46.2930804080259,
          -29.310634343155698
        ]
      }
    },
    {
      "type": "Feature",
      "properties": {
        "norad_id": 63772,
        "name": "BIOMASS",
        "group": "resource",
        "lat": -80.15609454538237,
        "lon": -118.76352026423795,
        "alt_km": 677.0058279862333,
        "timestamp": "2025-12-27T14:26:30.174579+00:00",
        "meta_object_name": "BIOMASS",
        "meta_object_id": "2025-090A",
        "meta_epoch": "2025-12-27T00:05:53.851200",
        "meta_mean_motion": 14.67535929,
        "meta_eccentricity": 0.00010413,
        "meta_inclination": 98.0692,
        "meta_ra_of_asc_node": 185.8039,
        "meta_arg_of_pericenter": 86.5947,
        "meta_mean_anomaly": 273.5377,
        "meta_ephemeris_type": 0,
        "meta_classification_type": "U",
        "meta_norad_cat_id": 63772,
        "meta_element_set_no": 999,
        "meta_rev_at_epoch": 3543,
        "meta_bstar": 0.0002500388,
        "meta_mean_motion_dot": 1.37e-05,
        "meta_mean_motion_ddot": 0,
        "tle_line1": "1 63772U 25090A   25361.00409550  .00001370  00000+0  25004-3 0  9995",
        "tle_line2": "2 63772  98.0692 185.8039 0001041  86.5947 273.5377 14.67535929 35430"
      },
      "geometry": {
        "type": "Point",
        "coordinates": [
          -118.76352026423795,
          -80.15609454538237
        ]
      }
    }
  ]
}